ONEWEB-0527             
1 54642U 22166A   25211.53737013  .00000074  00000+0  14729-3 0  9994
2 54642  87.9272 308.1725 0001936  97.5103 262.6251 13.21826708129046
ONEWEB-0528             
1 54643U 22166B   25211.31659387  .00000033  00000+0  47577-4 0  9991
2 54643  87.9277 308.2177 0001998  96.0084 264.1277 13.21826356129026
ONEWEB-0539             
1 54644U 22166C   25211.50423281 -.00000309  00000+0 -77936-3 0  9994
2 54644  87.9270 308.1540 0002270 101.1492 258.9897 13.21829816129043
ONEWEB-0540             
1 54645U 22166D   25211.51070513  .00000028  00000+0  36811-4 0  9996
2 54645  87.9271 308.1851 0002144 103.1118 257.0255 13.21826298129035
ONEWEB-0542             
1 54646U 22166E   25211.51372083  .00000104  00000+0  21975-3 0  9993
2 54646  87.9264 308.1483 0002186 108.9364 251.2007 13.21825818129040
ONEWEB-0545             
1 54647U 22166F   25211.55629868  .00000103  00000+0  21874-3 0  9991
2 54647  87.9273 308.1561 0002430 107.5137 252.6263 13.21827351129013
ONEWEB-0580             
1 54648U 22166G   25211.52948914  .00000144  00000+0  31665-3 0  9999
2 54648  87.9272 308.1593 0002123 109.1999 250.9365 13.21825493129054
ONEWEB-0582             
1 54649U 22166H   25211.49636400  .00000022  00000+0  20836-4 0  9994
2 54649  87.9264 308.1635 0002213 113.0252 247.1116 13.21826137129024
ONEWEB-0583             
1 54650U 22166J   25211.50741681  .00000054  00000+0  99970-4 0  9996
2 54650  87.9270 308.1827 0002127 101.4156 258.7217 13.21825222129039
ONEWEB-0584             
1 54651U 22166K   25211.52790988  .00000144  00000+0  31613-3 0  9992
2 54651  87.9273 308.1629 0002076 111.0773 249.0583 13.21826460129021
ONEWEB-0585             
1 54652U 22166L   25211.55312965  .00000046  00000+0  79592-4 0  9991
2 54652  87.9273 308.1439 0001895  96.5769 263.5580 13.21828167129036
ONEWEB-0586             
1 54653U 22166M   25211.56576139  .00000060  00000+0  11290-3 0  9994
2 54653  87.9272 308.1653 0002121 103.8761 256.2609 13.21826386129033
ONEWEB-0587             
1 54654U 22166N   25211.49951277  .00000103  00000+0  21810-3 0  9994
2 54654  87.9272 308.1266 0001868  94.0801 266.0547 13.21827917129184
ONEWEB-0589             
1 54655U 22166P   25211.56260294  .00000011  00000+0 -57018-5 0  9995
2 54655  87.9273 308.1581 0002299 121.8546 238.2812 13.21826207129053
ONEWEB-0590             
1 54656U 22166Q   25211.51040710  .00000043  00000+0  73289-4 0  9991
2 54656  87.9268 308.1463 0001553 105.5880 254.5426 13.21827680129035
ONEWEB-0591             
1 54657U 22166R   25211.52317631  .00000161  00000+0  35824-3 0  9995
2 54657  87.9271 308.1668 0002010 104.1527 255.9830 13.21826364129064
ONEWEB-0592             
1 54658U 22166S   25211.52633251  .00000093  00000+0  19435-3 0  9999
2 54658  87.9277 308.1180 0001946 103.8858 256.2492 13.21825963128948
