[{"OBJECT_NAME":"ONEWEB-0527","OBJECT_ID":"2022-166A","EPOCH":"2025-07-30T12:53:48.779232","MEAN_MOTION":13.21826708,"ECCENTRICITY":0.0001936,"INCLINATION":87.9272,"RA_OF_ASC_NODE":308.1725,"ARG_OF_PERICENTER":97.5103,"MEAN_ANOMALY":262.6251,"EPHEMERIS_TYPE":0,"CLASSIFICATION_TYPE":"U","NORAD_CAT_ID":54642,"ELEMENT_SET_NO":999,"REV_AT_EPOCH":12904,"BSTAR":0.00014729,"MEAN_MOTION_DOT":7.4e-7,"MEAN_MOTION_DDOT":0},{"OBJECT_NAME":"ONEWEB-0528","OBJECT_ID":"2022-166B","EPOCH":"2025-07-30T07:35:53.710368","MEAN_MOTION":13.21826356,"ECCENTRICITY":0.0001998,"INCLINATION":87.9277,"RA_OF_ASC_NODE":308.2177,"ARG_OF_PERICENTER":96.0084,"MEAN_ANOMALY":264.1277,"EPHEMERIS_TYPE":0,"CLASSIFICATION_TYPE":"U","NORAD_CAT_ID":54643,"ELEMENT_SET_NO":999,"REV_AT_EPOCH":12902,"BSTAR":4.7577e-5,"MEAN_MOTION_DOT":3.3e-7,"MEAN_MOTION_DDOT":0},{"OBJECT_NAME":"ONEWEB-0539","OBJECT_ID":"2022-166C","EPOCH":"2025-07-30T12:06:05.714784","MEAN_MOTION":13.21829816,"ECCENTRICITY":0.000227,"INCLINATION":87.927,"RA_OF_ASC_NODE":308.154,"ARG_OF_PERICENTER":101.1492,"MEAN_ANOMALY":258.9897,"EPHEMERIS_TYPE":0,"CLASSIFICATION_TYPE":"U","NORAD_CAT_ID":54644,"ELEMENT_SET_NO":999,"REV_AT_EPOCH":12904,"BSTAR":-0.00077936,"MEAN_MOTION_DOT":-3.09e-6,"MEAN_MOTION_DDOT":0},{"OBJECT_NAME":"ONEWEB-0540","OBJECT_ID":"2022-166D","EPOCH":"2025-07-30T12:15:24.923232","MEAN_MOTION":13.21826298,"ECCENTRICITY":0.0002144,"INCLINATION":87.9271,"RA_OF_ASC_NODE":308.1851,"ARG_OF_PERICENTER":103.1118,"MEAN_ANOMALY":257.0255,"EPHEMERIS_TYPE":0,"CLASSIFICATION_TYPE":"U","NORAD_CAT_ID":54645,"ELEMENT_SET_NO":999,"REV_AT_EPOCH":12903,"BSTAR":3.6811e-5,"MEAN_MOTION_DOT":2.8e-7,"MEAN_MOTION_DDOT":0},{"OBJECT_NAME":"ONEWEB-0542","OBJECT_ID":"2022-166E","EPOCH":"2025-07-30T12:19:45.479712","MEAN_MOTION":13.21825818,"ECCENTRICITY":0.0002186,"INCLINATION":87.9264,"RA_OF_ASC_NODE":308.1483,"ARG_OF_PERICENTER":108.9364,"MEAN_ANOMALY":251.2007,"EPHEMERIS_TYPE":0,"CLASSIFICATION_TYPE":"U","NORAD_CAT_ID":54646,"ELEMENT_SET_NO":999,"REV_AT_EPOCH":12904,"BSTAR":0.00021975,"MEAN_MOTION_DOT":1.04e-6,"MEAN_MOTION_DDOT":0},{"OBJECT_NAME":"ONEWEB-0545","OBJECT_ID":"2022-166F","EPOCH":"2025-07-30T13:21:04.205952","MEAN_MOTION":13.21827351,"ECCENTRICITY":0.000243,"INCLINATION":87.9273,"RA_OF_ASC_NODE":308.1561,"ARG_OF_PERICENTER":107.5137,"MEAN_ANOMALY":252.6263,"EPHEMERIS_TYPE":0,"CLASSIFICATION_TYPE":"U","NORAD_CAT_ID":54647,"ELEMENT_SET_NO":999,"REV_AT_EPOCH":12901,"BSTAR":0.00021874,"MEAN_MOTION_DOT":1.03e-6,"MEAN_MOTION_DDOT":0},{"OBJECT_NAME":"ONEWEB-0580","OBJECT_ID":"2022-166G","EPOCH":"2025-07-30T12:42:27.861696","MEAN_MOTION":13.21825493,"ECCENTRICITY":0.0002123,"INCLINATION":87.9272,"RA_OF_ASC_NODE":308.1593,"ARG_OF_PERICENTER":109.1999,"MEAN_ANOMALY":250.9365,"EPHEMERIS_TYPE":0,"CLASSIFICATION_TYPE":"U","NORAD_CAT_ID":54648,"ELEMENT_SET_NO":999,"REV_AT_EPOCH":12905,"BSTAR":0.00031665,"MEAN_MOTION_DOT":1.44e-6,"MEAN_MOTION_DDOT":0},{"OBJECT_NAME":"ONEWEB-0582","OBJECT_ID":"2022-166H","EPOCH":"2025-07-30T11:54:45.849600","MEAN_MOTION":13.21826137,"ECCENTRICITY":0.0002213,"INCLINATION":87.9264,"RA_OF_ASC_NODE":308.1635,"ARG_OF_PERICENTER":113.0252,"MEAN_ANOMALY":247.1116,"EPHEMERIS_TYPE":0,"CLASSIFICATION_TYPE":"U","NORAD_CAT_ID":54649,"ELEMENT_SET_NO":999,"REV_AT_EPOCH":12902,"BSTAR":2.0836e-5,"MEAN_MOTION_DOT":2.2e-7,"MEAN_MOTION_DDOT":0},{"OBJECT_NAME":"ONEWEB-0583","OBJECT_ID":"2022-166J","EPOCH":"2025-07-30T12:10:40.812384","MEAN_MOTION":13.21825222,"ECCENTRICITY":0.0002127,"INCLINATION":87.927,"RA_OF_ASC_NODE":308.1827,"ARG_OF_PERICENTER":101.4156,"MEAN_ANOMALY":258.7217,"EPHEMERIS_TYPE":0,"CLASSIFICATION_TYPE":"U","NORAD_CAT_ID":54650,"ELEMENT_SET_NO":999,"REV_AT_EPOCH":12903,"BSTAR":9.997e-5,"MEAN_MOTION_DOT":5.4e-7,"MEAN_MOTION_DDOT":0},{"OBJECT_NAME":"ONEWEB-0584","OBJECT_ID":"2022-166K","EPOCH":"2025-07-30T12:40:11.413632","MEAN_MOTION":13.2182646,"ECCENTRICITY":0.0002076,"INCLINATION":87.9273,"RA_OF_ASC_NODE":308.1629,"ARG_OF_PERICENTER":111.0773,"MEAN_ANOMALY":249.0583,"EPHEMERIS_TYPE":0,"CLASSIFICATION_TYPE":"U","NORAD_CAT_ID":54651,"ELEMENT_SET_NO":999,"REV_AT_EPOCH":12902,"BSTAR":0.00031613,"MEAN_MOTION_DOT":1.44e-6,"MEAN_MOTION_DDOT":0},{"OBJECT_NAME":"ONEWEB-0585","OBJECT_ID":"2022-166L","EPOCH":"2025-07-30T13:16:30.401760","MEAN_MOTION":13.21828167,"ECCENTRICITY":0.0001895,"INCLINATION":87.9273,"RA_OF_ASC_NODE":308.1439,"ARG_OF_PERICENTER":96.5769,"MEAN_ANOMALY":263.558,"EPHEMERIS_TYPE":0,"CLASSIFICATION_TYPE":"U","NORAD_CAT_ID":54652,"ELEMENT_SET_NO":999,"REV_AT_EPOCH":12903,"BSTAR":7.9592e-5,"MEAN_MOTION_DOT":4.6e-7,"MEAN_MOTION_DDOT":0},{"OBJECT_NAME":"ONEWEB-0586","OBJECT_ID":"2022-166M","EPOCH":"2025-07-30T13:34:41.784096","MEAN_MOTION":13.21826386,"ECCENTRICITY":0.0002121,"INCLINATION":87.9272,"RA_OF_ASC_NODE":308.1653,"ARG_OF_PERICENTER":103.8761,"MEAN_ANOMALY":256.2609,"EPHEMERIS_TYPE":0,"CLASSIFICATION_TYPE":"U","NORAD_CAT_ID":54653,"ELEMENT_SET_NO":999,"REV_AT_EPOCH":12903,"BSTAR":0.0001129,"MEAN_MOTION_DOT":6.0e-7,"MEAN_MOTION_DDOT":0},{"OBJECT_NAME":"ONEWEB-0587","OBJECT_ID":"2022-166N","EPOCH":"2025-07-30T11:59:17.903328","MEAN_MOTION":13.21827917,"ECCENTRICITY":0.0001868,"INCLINATION":87.9272,"RA_OF_ASC_NODE":308.1266,"ARG_OF_PERICENTER":94.0801,"MEAN_ANOMALY":266.0547,"EPHEMERIS_TYPE":0,"CLASSIFICATION_TYPE":"U","NORAD_CAT_ID":54654,"ELEMENT_SET_NO":999,"REV_AT_EPOCH":12918,"BSTAR":0.0002181,"MEAN_MOTION_DOT":1.03e-6,"MEAN_MOTION_DDOT":0},{"OBJECT_NAME":"ONEWEB-0589","OBJECT_ID":"2022-166P","EPOCH":"2025-07-30T13:30:08.894016","MEAN_MOTION":13.21826207,"ECCENTRICITY":0.0002299,"INCLINATION":87.9273,"RA_OF_ASC_NODE":308.1581,"ARG_OF_PERICENTER":121.8546,"MEAN_ANOMALY":238.2812,"EPHEMERIS_TYPE":0,"CLASSIFICATION_TYPE":"U","NORAD_CAT_ID":54655,"ELEMENT_SET_NO":999,"REV_AT_EPOCH":12905,"BSTAR":-5.7018e-6,"MEAN_MOTION_DOT":1.1e-7,"MEAN_MOTION_DDOT":0},{"OBJECT_NAME":"ONEWEB-0590","OBJECT_ID":"2022-166Q","EPOCH":"2025-07-30T12:14:59.173440","MEAN_MOTION":13.2182768,"ECCENTRICITY":0.0001553,"INCLINATION":87.9268,"RA_OF_ASC_NODE":308.1463,"ARG_OF_PERICENTER":105.588,"MEAN_ANOMALY":254.5426,"EPHEMERIS_TYPE":0,"CLASSIFICATION_TYPE":"U","NORAD_CAT_ID":54656,"ELEMENT_SET_NO":999,"REV_AT_EPOCH":12903,"BSTAR":7.3289e-5,"MEAN_MOTION_DOT":4.3e-7,"MEAN_MOTION_DDOT":0},{"OBJECT_NAME":"ONEWEB-0591","OBJECT_ID":"2022-166R","EPOCH":"2025-07-30T12:33:22.433184","MEAN_MOTION":13.21826364,"ECCENTRICITY":0.000201,"INCLINATION":87.9271,"RA_OF_ASC_NODE":308.1668,"ARG_OF_PERICENTER":104.1527,"MEAN_ANOMALY":255.983,"EPHEMERIS_TYPE":0,"CLASSIFICATION_TYPE":"U","NORAD_CAT_ID":54657,"ELEMENT_SET_NO":999,"REV_AT_EPOCH":12906,"BSTAR":0.00035824,"MEAN_MOTION_DOT":1.61e-6,"MEAN_MOTION_DDOT":0},{"OBJECT_NAME":"ONEWEB-0592","OBJECT_ID":"2022-166S","EPOCH":"2025-07-30T12:37:55.128864","MEAN_MOTION":13.21825963,"ECCENTRICITY":0.0001946,"INCLINATION":87.9277,"RA_OF_ASC_NODE":308.118,"ARG_OF_PERICENTER":103.8858,"MEAN_ANOMALY":256.2492,"EPHEMERIS_TYPE":0,"CLASSIFICATION_TYPE":"U","NORAD_CAT_ID":54658,"ELEMENT_SET_NO":999,"REV_AT_EPOCH":12894,"BSTAR":0.00019435,"MEAN_MOTION_DOT":9.3e-7,"MEAN_MOTION_DDOT":0}]
